{"type": "FeatureCollection", "features": [ {"type": "Feature", "properties": {"norad_id": 66583, "name": "STARLINK-35941", "group": "last-30-days", "lat": 19.499429600977802, "lon": 172.9399292629754, "alt_km": 392.6148682550738, "timestamp": "2025-12-07T16:44:02.690613+00:00", "meta": {"OBJECT_NAME": "STARLINK-35941", "OBJECT_ID": "2025-268AC", "EPOCH": "2025-12-06T22:00:01.999584", "MEAN_MOTION": 15.60629747, "ECCENTRICITY": 0.00016903, "INCLINATION": 42.9996, "RA_OF_ASC_NODE": 155.2298, "ARG_OF_PERICENTER": 269.8431, "MEAN_ANOMALY": 53.4415, "EPHEMERIS_TYPE": 0, "CLASSIFICATION_TYPE": "U", "NORAD_CAT_ID": 66583, "ELEMENT_SET_NO": 999, "REV_AT_EPOCH": 373, "BSTAR": -0.025839795, "MEAN_MOTION_DOT": -0.01939311, "MEAN_MOTION_DDOT": 0}, "tle": {"line1": "1 66583U 25268AC  25340.91668981 -.01939311  00000+0 -25840-1 0  9991", "line2": "2 66583  42.9996 155.2298 0001690 269.8431  53.4415 15.60629747  3732"}}, "geometry": {"type": "Point", "coordinates": [172.9399292629754, 19.499429600977802]}}, {"type": "Feature", "properties": {"norad_id": 66584, "name": "STARLINK-35939", "group": "last-30-days", "lat": 20.70192374715466, "lon": 174.5269737165421, "alt_km": 392.3899420037869, "timestamp": "2025-12-07T16:44:02.690623+00:00", "meta": {"OBJECT_NAME": "STARLINK-35939", "OBJECT_ID": "2025-268AD", "EPOCH": "2025-12-06T22:00:01.999584", "MEAN_MOTION": 15.60626363, "ECCENTRICITY": 0.00017669, "INCLINATION": 42.9996, "RA_OF_ASC_NODE": 155.2255, "ARG_OF_PERICENTER": 273.1119, "MEAN_ANOMALY": 52.0929, "EPHEMERIS_TYPE": 0, "CLASSIFICATION_TYPE": "U", "NORAD_CAT_ID": 66584, "ELEMENT_SET_NO": 999, "REV_AT_EPOCH": 373, "BSTAR": -0.025815591, "MEAN_MOTION_DOT": -0.01937542, "MEAN_MOTION_DDOT": 0}, "tle": {"line1": "1 66584U 25268AD  25340.91668981 -.01937542  00000+0 -25816-1 0  9999", "line2": "2 66584  42.9996 155.2255 0001766 273.1119  52.0929 15.60626363  3737"}}, "geometry": {"type": "Point", "coordinates": [174.5269737165421, 20.70192374715466]}}, {"type": "Feature", "properties": {"norad_id": 66585, "name": "STARLINK-35963", "group": "last-30-days", "lat": 21.885819640030626, "lon": 176.13372485154142, "alt_km": 392.19034227144857, "timestamp": "2025-12-07T16:44:02.690633+00:00", "meta": {"OBJECT_NAME": "STARLINK-35963", "OBJECT_ID": "2025-268AE", "EPOCH": "2025-12-06T22:00:01.999584", "MEAN_MOTION": 15.60633263, "ECCENTRICITY": 0.00016654, "INCLINATION": 42.9996, "RA_OF_ASC_NODE": 155.2208, "ARG_OF_PERICENTER": 274.7221, "MEAN_ANOMALY": 52.3972, "EPHEMERIS_TYPE": 0, "CLASSIFICATION_TYPE": "U", "NORAD_CAT_ID": 66585, "ELEMENT_SET_NO": 999, "REV_AT_EPOCH": 373, "BSTAR": -0.025940391, "MEAN_MOTION_DOT": -0.01946173, "MEAN_MOTION_DDOT": 0}, "tle": {"line1": "1 66585U 25268AE  25340.91668981 -.01946173  00000+0 -25940-1 0  9998", "line2": "2 66585  42.9996 155.2208 0001665 274.7221  52.3972 15.60633263  3733"}}, "geometry": {"type": "Point", "coordinates": [176.13372485154142, 21.885819640030626]}}, {"type": "Feature", "properties": {"norad_id": 66586, "name": "TJS-21", "group": "last-30-days", "lat": -21.037935905463165, "lon": -5.949953586307968, "alt_km": 4812.676896045004, "timestamp": "2025-12-07T16:44:02.690648+00:00", "meta": {"OBJECT_NAME": "TJS-21", "OBJECT_ID": "2025-269A", "EPOCH": "2025-12-06T17:47:41.602272", "MEAN_MOTION": 2.00560491, "ECCENTRICITY": 0.68052367, "INCLINATION": 63.2668, "RA_OF_ASC_NODE": 162.9832, "ARG_OF_PERICENTER": 269.7989, "MEAN_ANOMALY": 18.6583, "EPHEMERIS_TYPE": 0, "CLASSIFICATION_TYPE": "U", "NORAD_CAT_ID": 66586, "ELEMENT_SET_NO": 999, "REV_AT_EPOCH": 32, "BSTAR": -0.014744059, "MEAN_MOTION_DOT": 1.105e-05, "MEAN_MOTION_DDOT": 0}, "tle": {"line1": "1 66586U 25269A   25340.74145373  .00001105  00000+0 -14744-1 0  9991", "line2": "2 66586  63.2668 162.9832 6805236 269.7989  18.6583  2.00560491   328"}}, "geometry": {"type": "Point", "coordinates": [-5.949953586307968, -21.037935905463165]}}, {"type": "Feature", "properties": {"norad_id": 66587, "name": "CZ-3B R/B", "group": "last-30-days", "lat": 48.36919374602911, "lon": -124.84704347586688, "alt_km": 29310.259916680752, "timestamp": "2025-12-07T16:44:02.690661+00:00", "meta": {"OBJECT_NAME": "CZ-3B R/B", "OBJECT_ID": "2025-269B", "EPOCH": "2025-12-05T21:16:01.117056", "MEAN_MOTION": 2.02575003, "ECCENTRICITY": 0.75200619, "INCLINATION": 51.3669, "RA_OF_ASC_NODE": 171.2323, "ARG_OF_PERICENTER": 227.4915, "MEAN_ANOMALY": 38.5744, "EPHEMERIS_TYPE": 0, "CLASSIFICATION_TYPE": "U", "NORAD_CAT_ID": 66587, "ELEMENT_SET_NO": 999, "REV_AT_EPOCH": 31, "BSTAR": 0.0017517289, "MEAN_MOTION_DOT": 0.00055981, "MEAN_MOTION_DDOT": -8.28456e-07}, "tle": {"line1": "1 66587U 25269B   25339.88612404  .00055981 -82846-6  17517-2 0  9997", "line2": "2 66587  51.3669 171.2323 7520061 227.4915  38.5744  2.02575003   313"}}, "geometry": {"type": "Point", "coordinates": [-124.84704347586688, 48.36919374602911]}}, {"type": "Feature", "properties": {"norad_id": 66588, "name": "STARLINK-36076", "group": "last-30-days", "lat": -22.594732912223666, "lon": 68.92996533107186, "alt_km": 377.87369296687757, "timestamp": "2025-12-07T16:44:02.690676+00:00", "meta": {"OBJECT_NAME": "STARLINK-36076", "OBJECT_ID": "2025-270A", "EPOCH": "2025-12-06T22:00:01.999584", "MEAN_MOTION": 15.6714256, "ECCENTRICITY": 0.00010268, "INCLINATION": 42.999, "RA_OF_ASC_NODE": 227.073, "ARG_OF_PERICENTER": 263.3011, "MEAN_ANOMALY": 226.6327, "EPHEMERIS_TYPE": 0, "CLASSIFICATION_TYPE": "U", "NORAD_CAT_ID": 66588, "ELEMENT_SET_NO": 999, "REV_AT_EPOCH": 346, "BSTAR": -0.020574179, "MEAN_MOTION_DOT": -0.01995253, "MEAN_MOTION_DDOT": 0}, "tle": {"line1": "1 66588U 25270A   25340.91668981 -.01995253  00000+0 -20574-1 0  9995", "line2": "2 66588  42.9990 227.0730 0001026 263.3011 226.6327 15.67142560  3462"}}, "geometry": {"type": "Point", "coordinates": [68.92996533107186, -22.594732912223666]}}, {"type": "Feature", "properties": {"norad_id": 66589, "name": "STARLINK-35447", "group": "last-30-days", "lat": -24.890634474117903, "lon": 72.25779867417486, "alt_km": 378.00100601707436, "timestamp": "2025-12-07T16:44:02.690687+00:00", "meta": {"OBJECT_NAME": "STARLINK-35447", "OBJECT_ID": "2025-270B", "EPOCH": "2025-12-06T22:00:01.999584", "MEAN_MOTION": 15.67155778, "ECCENTRICITY": 0.00012646, "INCLINATION": 42.9987, "RA_OF_ASC_NODE": 227.0628, "ARG_OF_PERICENTER": 266.3442, "MEAN_ANOMALY": 227.4166, "EPHEMERIS_TYPE": 0, "CLASSIFICATION_TYPE": "U", "NORAD_CAT_ID": 66589, "ELEMENT_SET_NO": 999, "REV_AT_EPOCH": 357, "BSTAR": -0.020728332, "MEAN_MOTION_DOT": -0.02009524, "MEAN_MOTION_DDOT": 0}, "tle": {"line1": "1 66589U 25270B   25340.91668981 -.02009524  00000+0 -20728-1 0  9995", "line2": "2 66589  42.9987 227.0628 0001264 266.3442 227.4166 15.67155778  3577"}}, "geometry": {"type": "Point", "coordinates": [72.25779867417486, -24.890634474117903]}}, {"type": "Feature", "properties": {"norad_id": 66590, "name": "STARLINK-35429", "group": "last-30-days", "lat": -23.75048256920967, "lon": 70.57701972265042, "alt_km": 377.97707375604296, "timestamp": "2025-12-07T16:44:02.690696+00:00", "meta": {"OBJECT_NAME": "STARLINK-35429", "OBJECT_ID": "2025-270C", "EPOCH": "2025-12-06T22:00:01.999584", "MEAN_MOTION": 15.67153528, "ECCENTRICITY": 0.00012475, "INCLINATION": 42.9989, "RA_OF_ASC_NODE": 227.0675, "ARG_OF_PERICENTER": 267.5201, "MEAN_ANOMALY": 224.3258, "EPHEMERIS_TYPE": 0, "CLASSIFICATION_TYPE": "U", "NORAD_CAT_ID": 66590, "ELEMENT_SET_NO": 999, "REV_AT_EPOCH": 357, "BSTAR": -0.020696492, "MEAN_MOTION_DOT": -0.02006636, "MEAN_MOTION_DDOT": 0}, "tle": {"line1": "1 66590U 25270C   25340.91668981 -.02006636  00000+0 -20696-1 0  9992", "line2": "2 66590  42.9989 227.0675 0001247 267.5201 224.3258 15.67153528  3579"}}, "geometry": {"type": "Point", "coordinates": [70.57701972265042, -23.75048256920967]}}, {"type": "Feature", "properties": {"norad_id": 66591, "name": "STARLINK-36058", "group": "last-30-days", "lat": -26.01267399876413, "lon": 73.97133387385313, "alt_km": 378.0549842566552, "timestamp": "2025-12-07T16:44:02.690708+00:00", "meta": {"OBJECT_NAME": "STARLINK-36058", "OBJECT_ID": "2025-270D", "EPOCH": "2025-12-06T22:00:01.999584", "MEAN_MOTION": 15.67154595, "ECCENTRICITY": 0.00012887, "INCLINATION": 42.9987, "RA_OF_ASC_NODE": 227.0581, "ARG_OF_PERICENTER": 266.9111, "MEAN_ANOMALY": 228.7681, "EPHEMERIS_TYPE": 0, "CLASSIFICATION_TYPE": "U", "NORAD_CAT_ID": 66591, "ELEMENT_SET_NO": 999, "REV_AT_EPOCH": 346, "BSTAR": -0.020722936, "MEAN_MOTION_DOT": -0.02008998, "MEAN_MOTION_DDOT": 0}, "tle": {"line1": "1 66591U 25270D   25340.91668981 -.02008998  00000+0 -20723-1 0  9997", "line2": "2 66591  42.9987 227.0581 0001288 266.9111 228.7681 15.67154595  3463"}}, "geometry": {"type": "Point", "coordinates": [73.97133387385313, -26.01267399876413]}}, {"type": "Feature", "properties": {"norad_id": 66592, "name": "STARLINK-36066", "group": "last-30-days", "lat": -27.11745534111473, "lon": 75.72302792457688, "alt_km": 378.07799071168847, "timestamp": "2025-12-07T16:44:02.690719+00:00", "meta": {"OBJECT_NAME": "STARLINK-36066", "OBJECT_ID": "2025-270E", "EPOCH": "2025-12-06T22:00:01.999584", "MEAN_MOTION": 15.67153903, "ECCENTRICITY": 0.00012348, "INCLINATION": 42.9989, "RA_OF_ASC_NODE": 227.0534, "ARG_OF_PERICENTER": 265.3912, "MEAN_ANOMALY": 232.2039, "EPHEMERIS_TYPE": 0, "CLASSIFICATION_TYPE": "U", "NORAD_CAT_ID": 66592, "ELEMENT_SET_NO": 999, "REV_AT_EPOCH": 336, "BSTAR": -0.020692701, "MEAN_MOTION_DOT": -0.02006331, "MEAN_MOTION_DDOT": 0}, "tle": {"line1": "1 66592U 25270E   25340.91668981 -.02006331  00000+0 -20693-1 0  9993", "line2": "2 66592  42.9989 227.0534 0001234 265.3912 232.2039 15.67153903  3365"}}, "geometry": {"type": "Point", "coordinates": [75.72302792457688, -27.11745534111473]}}]}